{
    "links": {
        "self": "http://www.neowsapp.com/rest/v1/neo/3831195?api_key=iIulBulltgU6a56xZRHN4H3l9WmuAYTsLGpBGhQ2"
    },
    "id": "3831195",
    "neo_reference_id": "3831195",
    "name": "(2018 TX)",
    "designation": "2018 TX",
    "nasa_jpl_url": "http://ssd.jpl.nasa.gov/sbdb.cgi?sstr=3831195",
    "absolute_magnitude_h": 25.3,
    "estimated_diameter": {
        "kilometers": {
            "estimated_diameter_min": 0.0231502122,
            "estimated_diameter_max": 0.0517654482
        },
        "meters": {
            "estimated_diameter_min": 23.150212221,
            "estimated_diameter_max": 51.7654482198
        },
        "miles": {
            "estimated_diameter_min": 0.0143848705,
            "estimated_diameter_max": 0.0321655483
        },
        "feet": {
            "estimated_diameter_min": 75.9521422633,
            "estimated_diameter_max": 169.8341531374
        }
    },
    "is_potentially_hazardous_asteroid": false,
    "close_approach_data": [
        {
            "close_approach_date": "2018-09-20",
            "close_approach_date_full": "2018-Sep-20 03:32",
            "epoch_date_close_approach": 1537414320000,
            "relative_velocity": {
                "kilometers_per_second": "8.0619570506",
                "kilometers_per_hour": "29023.0453820677",
                "miles_per_hour": "18033.7917264298"
            },
            "miss_distance": {
                "astronomical": "0.0606677576",
                "lunar": "23.5997577064",
                "kilometers": "9075767.314636312",
                "miles": "5639420.3059206256"
            },
            "orbiting_body": "Earth"
        }
    ],
    "orbital_data": {
        "orbit_id": "1",
        "orbit_determination_date": "2018-10-06 21:14:28",
        "first_observation_date": "2018-09-30",
        "last_observation_date": "2018-10-06",
        "data_arc_in_days": 6,
        "observations_used": 29,
        "orbit_uncertainty": "8",
        "minimum_orbit_intersection": ".0349883",
        "jupiter_tisserand_invariant": "3.925",
        "epoch_osculation": "2458395.5",
        "eccentricity": ".4366507882394698",
        "semi_major_axis": "1.814955431312085",
        "inclination": "5.028998619347813",
        "ascending_node_longitude": "2.689452529767123",
        "orbital_period": "893.094416219955",
        "perihelion_distance": "1.022453711610156",
        "perihelion_argument": "329.8968496690184",
        "aphelion_distance": "2.607457151014013",
        "perihelion_time": "2458362.225714634102",
        "mean_anomaly": "13.41262750518989",
        "mean_motion": ".4030928796125601",
        "equinox": "J2000",
        "orbit_class": {
            "orbit_class_type": "AMO",
            "orbit_class_description": "Near-Earth asteroid orbits similar to that of 1221 Amor",
            "orbit_class_range": "1.017 AU < q (perihelion) < 1.3 AU"
        }
    },
    "is_sentry_object": false
}